{
    "links": {
        "self": "http://www.neowsapp.com/rest/v1/neo/3842913?api_key=iIulBulltgU6a56xZRHN4H3l9WmuAYTsLGpBGhQ2"
    },
    "id": "3842913",
    "neo_reference_id": "3842913",
    "name": "(2019 MH)",
    "designation": "2019 MH",
    "nasa_jpl_url": "http://ssd.jpl.nasa.gov/sbdb.cgi?sstr=3842913",
    "absolute_magnitude_h": 21.5,
    "estimated_diameter": {
        "kilometers": {
            "estimated_diameter_min": 0.1332155667,
            "estimated_diameter_max": 0.2978790628
        },
        "meters": {
            "estimated_diameter_min": 133.2155666981,
            "estimated_diameter_max": 297.8790627982
        },
        "miles": {
            "estimated_diameter_min": 0.0827762899,
            "estimated_diameter_max": 0.1850934111
        },
        "feet": {
            "estimated_diameter_min": 437.0589598459,
            "estimated_diameter_max": 977.2935443908
        }
    },
    "is_potentially_hazardous_asteroid": false,
    "close_approach_data": [
        {
            "close_approach_date": "1924-11-21",
            "close_approach_date_full": "1924-Nov-21 20:00",
            "epoch_date_close_approach": -1423540800000,
            "relative_velocity": {
                "kilometers_per_second": "16.6183952257",
                "kilometers_per_hour": "59826.2228123821",
                "miles_per_hour": "37173.6882802827"
            },
            "miss_distance": {
                "astronomical": "0.2843688298",
                "lunar": "110.6194747922",
                "kilometers": "42540971.232472526",
                "miles": "26433733.7753358188"
            },
            "orbiting_body": "Earth"
        },
        {
            "close_approach_date": "1925-01-12",
            "close_approach_date_full": "1925-Jan-12 04:08",
            "epoch_date_close_approach": -1419105120000,
            "relative_velocity": {
                "kilometers_per_second": "12.6378560197",
                "kilometers_per_hour": "45496.281670839",
                "miles_per_hour": "28269.6201304166"
            },
            "miss_distance": {
                "astronomical": "0.0729696618",
                "lunar": "28.3851984402",
                "kilometers": "10916105.979900366",
                "miles": "6782953.7261664108"
            },
            "orbiting_body": "Merc"
        },
        {
            "close_approach_date": "2019-06-18",
            "close_approach_date_full": "2019-Jun-18 16:59",
            "epoch_date_close_approach": 1560877140000,
            "relative_velocity": {
                "kilometers_per_second": "28.7220489056",
                "kilometers_per_hour": "103399.3760600974",
                "miles_per_hour": "64248.3511968977"
            },
            "miss_distance": {
                "astronomical": "0.1506700897",
                "lunar": "58.6106648933",
                "kilometers": "22539924.491828939",
                "miles": "14005659.6281557982"
            },
            "orbiting_body": "Earth"
        },
        {
            "close_approach_date": "2156-10-31",
            "close_approach_date_full": "2156-Oct-31 13:55",
            "epoch_date_close_approach": 5895899700000,
            "relative_velocity": {
                "kilometers_per_second": "30.4705989452",
                "kilometers_per_hour": "109694.156202801",
                "miles_per_hour": "68159.6827805682"
            },
            "miss_distance": {
                "astronomical": "0.2009100476",
                "lunar": "78.1540085164",
                "kilometers": "30055715.182558612",
                "miles": "18675755.4081563656"
            },
            "orbiting_body": "Earth"
        },
        {
            "close_approach_date": "2156-12-19",
            "close_approach_date_full": "2156-Dec-19 16:09",
            "epoch_date_close_approach": 5900141340000,
            "relative_velocity": {
                "kilometers_per_second": "12.9614477504",
                "kilometers_per_hour": "46661.2119014472",
                "miles_per_hour": "28993.4624728742"
            },
            "miss_distance": {
                "astronomical": "0.0825775083",
                "lunar": "32.1226507287",
                "kilometers": "12353419.351587321",
                "miles": "7676058.8414981898"
            },
            "orbiting_body": "Merc"
        }
    ],
    "orbital_data": {
        "orbit_id": "9",
        "orbit_determination_date": "2019-12-04 07:18:08",
        "first_observation_date": "2019-06-22",
        "last_observation_date": "2019-07-05",
        "data_arc_in_days": 13,
        "observations_used": 66,
        "orbit_uncertainty": "9",
        "minimum_orbit_intersection": ".0749124",
        "jupiter_tisserand_invariant": "3.552",
        "epoch_osculation": "2458660.5",
        "eccentricity": ".7681820850722371",
        "semi_major_axis": "1.866538262595411",
        "inclination": "4.550203372109308",
        "ascending_node_longitude": "149.1759638371453",
        "orbital_period": "931.4376150783087",
        "perihelion_distance": ".4326970081677575",
        "perihelion_argument": "2.852282729389464",
        "aphelion_distance": "3.300379517023066",
        "perihelion_time": "2458607.675112751606",
        "mean_anomaly": "20.41678272551085",
        "mean_motion": ".3864993147927934",
        "equinox": "J2000",
        "orbit_class": {
            "orbit_class_type": "APO",
            "orbit_class_description": "Near-Earth asteroid orbits which cross the Earth’s orbit similar to that of 1862 Apollo",
            "orbit_class_range": "a (semi-major axis) > 1.0 AU; q (perihelion) < 1.017 AU"
        }
    },
    "is_sentry_object": false
}